NORAD_CAT_ID,OBJECT_NAME,OBJECT_TYPE,EPOCH,MEAN_MOTION,ECCENTRICITY,INCLINATION,RA_OF_ASC_NODE,ARG_OF_PERICENTER,MEAN_ANOMALY,BSTAR,MEAN_MOTION_DOT,MEAN_MOTION_DDOT,TLE_LINE0,TLE_LINE1,TLE_LINE2,SEMIMAJOR_AXIS,PERIOD,APOGEE,PERIGEE,DECAYED
52621.0,STARLINK-3984,PAYLOAD,2022-06-19 14:00:01,15.73228596,0.0002263,53.2129,262.6955,21.8997,43.1669,-0.00034017,-0.00048154,0.0,0 STARLINK-3984,1 52621U 22052Z   22170.58334491 -.00048154  00000-0 -34017-3 0  9998,2 52621  53.2129 262.6955 0002263  21.8997  43.1669 15.73228596  1305,6727.814,91.532,351.201,348.156,0.0
52621.0,STARLINK-3984,PAYLOAD,2022-06-19 22:00:00,15.73213607,0.0002176,53.2123,261.0447,19.5719,134.4386,0.0001055,0.0001422,0.0,0 STARLINK-3984,1 52621U 22052Z   22170.91667824  .00014220  00000-0  10550-3 0  9995,2 52621  53.2123 261.0447 0002176  19.5719 134.4386 15.73213607  1304,6727.856,91.532,351.185,348.25699999999995,0.0
52621.0,STARLINK-3984,PAYLOAD,2022-06-20 10:00:00,15.73242956,0.0002191,53.2127,258.5703,22.5325,84.9055,-0.00083192,-0.00116008,0.0,0 STARLINK-3984,1 52621U 22052Z   22171.41667824 -.00116008  00000-0 -83192-3 0  9992,2 52621  53.2127 258.5703 0002191  22.5325  84.9055 15.73242956  6146,6727.773,91.531,351.112,348.164,0.0
52621.0,STARLINK-3984,PAYLOAD,2022-06-20 14:00:01,15.73170009,0.0002338,53.2128,257.7463,22.3348,309.586,-3.717300000000001e-05,-5.829e-05,0.0,0 STARLINK-3984,1 52621U 22052Z   22171.58334491 -.00005829  00000-0 -37173-4 0  9998,2 52621  53.2128 257.7463 0002338  22.3348 309.5860 15.73170009  1309,6727.981,91.535,351.4190000000001,348.273,0.0
52621.0,STARLINK-3984,PAYLOAD,2022-06-20 20:00:01,15.73191511,0.0002364,53.2127,256.5085,18.6601,289.9381,0.00022005,0.00030365,0.0,0 STARLINK-3984,1 52621U 22052Z   22171.83334491  .00030365  00000-0  22005-3 0  9994,2 52621  53.2127 256.5085 0002364  18.6601 289.9381 15.73191511  6208,6727.919,91.534,351.375,348.194,0.0
52621.0,STARLINK-3984,PAYLOAD,2022-06-20 22:00:00,15.73205504,0.0002314,53.2128,256.0955,20.0888,40.7366,0.00011252,0.00015204,0.0,0 STARLINK-3984,1 52621U 22052Z   22171.91667824  .00015204  00000-0  11252-3 0  9999,2 52621  53.2128 256.0955 0002314  20.0888  40.7366 15.73205504  1309,6727.879,91.533,351.301,348.18800000000016,0.0
52621.0,STARLINK-3984,PAYLOAD,2022-06-21 04:00:00,15.72984871,0.0002193,53.2161,254.854,29.5229,8.0805,0.0018588,0.00266232,0.0,0 STARLINK-3984,1 52621U 22052Z   22172.16667824  .00266232  00000-0  18588-2 0  9994,2 52621  53.2161 254.8540 0002193  29.5229   8.0805 15.72984871  6265,6728.509,91.546,351.849,348.898,0.0
52621.0,STARLINK-3984,PAYLOAD,2022-06-21 14:00:01,15.73198648,0.0002587,53.2131,252.7974,23.1111,215.631,-0.00043107,-0.00060693,0.0,0 STARLINK-3984,1 52621U 22052Z   22172.58334491 -.00060693  00000-0 -43107-3 0  9992,2 52621  53.2131 252.7974 0002587  23.1111 215.6310 15.73198648  1304,6727.899,91.533,351.505,348.024,0.0
52621.0,STARLINK-3984,PAYLOAD,2022-06-21 20:00:01,15.73164559,0.0002484,53.2129,251.5594,19.532,195.8917,7.8784e-05,0.00010433,0.0,0 STARLINK-3984,1 52621U 22052Z   22172.83334491  .00010433  00000-0  78784-4 0  9995,2 52621  53.2129 251.5594 0002484  19.5320 195.8917 15.73164559  6360,6727.996,91.535,351.532,348.19,0.0
52621.0,STARLINK-3984,PAYLOAD,2022-06-21 22:00:00,15.73167019,0.0002381,53.2133,251.1463,20.2054,307.4388,0.00013202,0.00017922,0.0,0 STARLINK-3984,1 52621U 22052Z   22172.91667824  .00017922  00000-0  13202-3 0  9996,2 52621  53.2133 251.1463 0002381  20.2054 307.4388 15.73167019  1301,6727.989000000001,91.535,351.456,348.25199999999984,0.0
52621.0,STARLINK-3984,PAYLOAD,2022-06-22 14:00:01,15.7314962,0.0002523,53.2148,247.8487,15.0008,130.474,0.00041121,0.00057366,0.0,0 STARLINK-3984,1 52621U 22052Z   22173.58334491  .00057366  00000-0  41121-3 0  9998,2 52621  53.2148 247.8487 0002523  15.0008 130.4740 15.73149620  1308,6728.0390000000025,91.536,351.601,348.206,0.0
52621.0,STARLINK-3984,PAYLOAD,2022-06-22 22:00:00,15.73218297,0.0002451,53.215,246.1976,16.2135,218.1685,7.2888e-05,9.628e-05,0.0,0 STARLINK-3984,1 52621U 22052Z   22173.91667824  .00009628  00000-0  72888-4 0  9997,2 52621  53.2150 246.1976 0002451  16.2135 218.1685 15.73218297  6539,6727.843000000003,91.532,351.357,348.059,0.0
52621.0,STARLINK-3984,PAYLOAD,2022-06-23 12:00:00,15.73213608,0.000272,53.2148,243.3121,20.9685,279.0685,-0.00023107,-0.0003295,0.0,0 STARLINK-3984,1 52621U 22052Z   22174.50001157 -.00032950  00000-0 -23107-3 0  9999,2 52621  53.2148 243.3121 0002720  20.9685 279.0685 15.73213608  6625,6727.856,91.532,351.551,347.891,0.0
52621.0,STARLINK-3984,PAYLOAD,2022-06-23 14:00:01,15.73208432,0.0002744,53.2149,242.9001,19.8507,32.4213,-0.00022099,-0.00031538,0.0,0 STARLINK-3984,1 52621U 22052Z   22174.58334491 -.00031538  00000-0 -22099-3 0  9997,2 52621  53.2149 242.9001 0002744  19.8507  32.4213 15.73208432  1301,6727.871,91.533,351.582,347.89,0.0
52621.0,STARLINK-3984,PAYLOAD,2022-06-23 22:00:00,15.73165184,0.0002525,53.2145,241.2488,17.2689,123.9346,0.00016498,0.00022563,0.0,0 STARLINK-3984,1 52621U 22052Z   22174.91667824  .00022563  00000-0  16498-3 0  9995,2 52621  53.2145 241.2488 0002525  17.2689 123.9346 15.73165184  1307,6727.994000000002,91.535,351.55800000000005,348.161,0.0
52621.0,STARLINK-3984,PAYLOAD,2022-06-24 04:00:00,15.73175912,0.0002418,53.2147,240.0112,20.003,97.8714,0.00047076,0.00065905,0.0,0 STARLINK-3984,1 52621U 22052Z   22175.16667824  .00065905  00000-0  47076-3 0  9996,2 52621  53.2147 240.0112 0002418  20.0030  97.8714 15.73175912  6733,6727.964,91.535,351.456,348.202,0.0
52621.0,STARLINK-3984,PAYLOAD,2022-06-24 12:00:00,15.732274,0.0002692,53.2148,238.3638,16.7548,190.0391,-0.00030947,-0.00043888,0.0,0 STARLINK-3984,1 52621U 22052Z   22175.50001157 -.00043888  00000-0 -30947-3 0  9992,2 52621  53.2148 238.3638 0002692  16.7548 190.0391 15.73227400  6789,6727.816999999999,91.532,351.49300000000005,347.871,0.0
52621.0,STARLINK-3984,PAYLOAD,2022-06-24 14:00:01,15.7321388,0.0002721,53.2148,237.9517,15.4705,303.5641,-0.00018747,-0.00026869,0.0,0 STARLINK-3984,1 52621U 22052Z   22175.58334491 -.00026869  00000-0 -18747-3 0  9994,2 52621  53.2148 237.9517 0002721  15.4705 303.5641 15.73213880  1303,6727.856,91.532,351.551,347.89,0.0
52621.0,STARLINK-3984,PAYLOAD,2022-06-24 20:00:01,15.73355129,0.0002613,53.2158,236.7119,17.2032,278.5265,-0.0023363,-0.00318607,0.0,0 STARLINK-3984,1 52621U 22052Z   22175.83334491 -.00318607  00000-0 -23363-2 0  9995,2 52621  53.2158 236.7119 0002613  17.2032 278.5265 15.73355129  6831,6727.453,91.524,351.076,347.56,0.0
52621.0,STARLINK-3984,PAYLOAD,2022-06-24 22:00:01,15.73278134,0.0002516,53.2164,236.2986,17.5958,30.4693,-0.001696,-0.00233007,0.0,0 STARLINK-3984,1 52621U 22052Z   22175.91668981 -.00233007  00000-0 -16960-2 0  9993,2 52621  53.2164 236.2986 0002516  17.5958  30.4693 15.73278134  1304,6727.672,91.529,351.23,347.845,0.0
52621.0,STARLINK-3984,PAYLOAD,2022-06-25 04:00:00,15.73132126,0.0002254,53.2151,235.0629,17.4273,7.1639,0.00013973,0.00018978,0.0,0 STARLINK-3984,1 52621U 22052Z   22176.16667824  .00018978  00000-0  13973-3 0  9994,2 52621  53.2151 235.0629 0002254  17.4273   7.1639 15.73132126  6888,6728.089,91.537,351.47,348.43699999999984,0.0
52621.0,STARLINK-3984,PAYLOAD,2022-06-25 12:00:00,15.73148297,0.0002566999999999,53.2147,233.4156,16.1626,97.306,0.00030932,0.00042921,0.0,0 STARLINK-3984,1 52621U 22052Z   22176.50001157  .00042921  00000-0  30932-3 0  9992,2 52621  53.2147 233.4156 0002567  16.1626  97.3060 15.73148297  6947,6728.043000000002,91.536,351.635,348.18,0.0
52621.0,STARLINK-3984,PAYLOAD,2022-06-25 14:00:01,15.73137599,0.0002623,53.2147,233.0035,15.7573,209.9349,0.00058508,0.00082086,0.0,0 STARLINK-3984,1 52621U 22052Z   22176.58334491  .00082086  00000-0  58508-3 0  9995,2 52621  53.2147 233.0035 0002623  15.7573 209.9349 15.73137599  1307,6728.073,91.537,351.70300000000015,348.173,0.0
52621.0,STARLINK-3984,PAYLOAD,2022-06-25 22:00:00,15.73159821,0.0002448,53.2144,231.3521,20.06900000000001,294.5269,0.0011634,0.00165638,0.0,0 STARLINK-3984,1 52621U 22052Z   22176.91667824  .00165638  00000-0  11634-2 0  9994,2 52621  53.2144 231.3521 0002448  20.0690 294.5269 15.73159821  1302,6728.01,91.536,351.522,348.228,0.0
52621.0,STARLINK-3984,PAYLOAD,2022-06-26 04:00:00,15.73285763,0.0002373,53.2145,230.1147,22.5944,268.6951,0.000396,0.00055533,0.0,0 STARLINK-3984,1 52621U 22052Z   22177.16667824  .00055533  00000-0  39600-3 0  9998,2 52621  53.2145 230.1147 0002373  22.5944 268.6951 15.73285763  7042,6727.651,91.528,351.112,347.9190000000001,0.0
52621.0,STARLINK-3984,PAYLOAD,2022-06-26 12:00:00,15.73346047,0.0002596,53.2145,228.4671,17.8471,2.5102,-0.0006984,-0.00098133,0.0,0 STARLINK-3984,1 52621U 22052Z   22177.50001157 -.00098133  00000-0 -69840-3 0  9991,2 52621  53.2145 228.4671 0002596  17.8471   2.5102 15.73346047  7094,6727.479,91.525,351.09,347.597,0.0
52621.0,STARLINK-3984,PAYLOAD,2022-06-26 14:00:01,15.73302978,0.0002628,53.2144,228.0548,15.5478,117.157,-0.0002743,-0.00039117,0.0,0 STARLINK-3984,1 52621U 22052Z   22177.58335648 -.00039117  00000-0 -27430-3 0  9990,2 52621  53.2144 228.0548 0002628  15.5478 117.1570 15.73302978  1305,6727.602,91.527,351.235,347.699,0.0
52621.0,STARLINK-3984,PAYLOAD,2022-06-26 20:00:01,15.73145131,0.0002439,53.217,226.8129,22.6979,86.6558,0.00065934,0.00092729,0.0,0 STARLINK-3984,1 52621U 22052Z   22177.83334491  .00092729  00000-0  65934-3 0  9990,2 52621  53.2170 226.8129 0002439  22.6979  86.6558 15.73145131  7151,6728.052,91.536,351.55800000000005,348.276,0.0
52621.0,STARLINK-3984,PAYLOAD,2022-06-26 22:00:00,15.73199142,0.0002391,53.2174,226.3997,23.0856,198.4742,6.5275e-05,8.549e-05,0.0,0 STARLINK-3984,1 52621U 22052Z   22177.91667824  .00008549  00000-0  65275-4 0  9994,2 52621  53.2174 226.3997 0002391  23.0856 198.4742 15.73199142  1308,6727.898,91.533,351.371,348.154,0.0
